BEIDOU 3 (C01)          
1 36287U 10001A   22277.82077520 -.00000294  00000+0  00000+0 0  9993
2 36287   1.6990  47.8558 0000571   2.0850  39.5014  1.00272462 46611
BEIDOU 5 (C06)          
1 36828U 10036A   22277.77779883 -.00000159  00000+0  00000+0 0  9997
2 36828  54.1979 175.2307 0030260 187.1772  38.8272  1.00267238 44673
BEIDOU 6 (C04)          
1 37210U 10057A   22276.87682968 -.00000124  00000+0  00000+0 0  9995
2 37210   0.7505  39.1331 0007169 149.3197 299.7057  1.00270198 43722
BEIDOU 7 (C07)          
1 37256U 10068A   22277.71015457 -.00000172  00000+0  00000+0 0  9997
2 37256  50.0198 288.3369 0024005 205.3988 243.4697  1.00272641 43244
BEIDOU 8 (C08)          
1 37384U 11013A   22277.87873743 -.00000170  00000+0  00000+0 0  9995
2 37384  60.4520  53.1789 0024458 178.4426 206.6720  1.00278736 42128
BEIDOU 9 (C09)          
1 37763U 11038A   22277.87225296 -.00000107  00000+0  00000+0 0  9997
2 37763  54.4789 177.7336 0098971 227.7299  15.7493  1.00258707 41094
BEIDOU 10 (C10)         
1 37948U 11073A   22277.77711859 -.00000126  00000+0  00000+0 0  9996
2 37948  50.1368 287.9843 0086766 220.0589 241.0560  1.00269363 39859
BEIDOU 11 (C05)         
1 38091U 12008A   22277.76455781  .00000043  00000+0  00000+0 0  9990
2 38091   1.8054  69.8976 0010015 340.1992 297.2624  1.00271144 38925
BEIDOU 12 (C11)         
1 38250U 12018A   22277.67630641 -.00000092  00000+0  00000+0 0  9993
2 38250  56.6599 349.9534 0023546 250.6471 109.1538  1.86234442 71124
BEIDOU 13 (C12)         
1 38251U 12018B   22277.63267638 -.00000091  00000+0  00000+0 0  9991
2 38251  56.5756 349.2713 0014247 250.2632 124.4395  1.86234251 71123
BEIDOU 15 (C14)         
1 38775U 12050B   22277.27625117  .00000051  00000+0  00000+0 0  9993
2 38775  55.4628 108.0224 0011812 333.9666 357.6250  1.86231472 68486
BEIDOU 16 (C02)         
1 38953U 12059A   22277.89859541 -.00000190  00000+0  00000+0 0  9993
2 38953   1.1895  81.2795 0023911 295.8080  44.0845  1.00269083 36490
BEIDOU 17 (C31)         
1 40549U 15019A   22277.77698688 -.00000155  00000+0  00000+0 0  9997
2 40549  51.6971 311.4852 0038584 198.3670 239.1582  1.00273723 27531
BEIDOU 18 (C57)         
1 40748U 15037A   22277.30489110 -.00000090  00000+0  00000+0 0  9993
2 40748  55.8251 348.0833 0000913  19.5182  44.7226  1.86233512 48940
BEIDOU 19 (C58)         
1 40749U 15037B   22277.66109847 -.00000090  00000+0  00000+0 0  9999
2 40749  55.8283 348.0610 0003328 295.9362 141.3056  1.86233127 48949
BEIDOU 20 (C18)         
1 40938U 15053A   22277.93397140 -.00000109  00000+0  00000+0 0  9993
2 40938  51.3344 274.6111 0045904 200.4323 331.0503  1.00267418 25803
BEIDOU IGSO-6 (C13)     
1 41434U 16021A   22277.89844447 -.00000138  00000+0  00000+0 0  9995
2 41434  58.2625  51.7043 0045619 215.1432 164.4534  1.00262051 23930
BEIDOU-2 G7 (C03)       
1 41586U 16037A   22277.84224765 -.00000368  00000+0  00000+0 0  9995
2 41586   1.6147  68.2334 0007941 354.9333   4.1353  1.00271210 23232
BEIDOU-3 M1 (C19)       
1 43001U 17069A   22277.62572638  .00000054  00000+0  00000+0 0  9997
2 43001  55.6172 108.0252 0007534 295.3311  66.9312  1.86231783 33436
BEIDOU-3 M2 (C20)       
1 43002U 17069B   22277.56299414  .00000054  00000+0  00000+0 0  9999
2 43002  55.6159 108.0634 0006140 327.3097  35.7572  1.86231335 33429
BEIDOU-3 M3 (C27)       
1 43107U 18003A   22277.43912497 -.00000092  00000+0  00000+0 0  9996
2 43107  55.2770 348.9476 0003763  70.5080  15.8071  1.86232597 32182
BEIDOU-3 M4 (C28)       
1 43108U 18003B   22277.36852586 -.00000092  00000+0  00000+0 0  9991
2 43108  55.2703 348.9388 0003858 238.9747 203.2812  1.86231046 32180
BEIDOU-3 M5 (C21)       
1 43207U 18018A   22277.15330426  .00000051  00000+0  00000+0 0  9992
2 43207  55.5747 108.1520 0004312   8.6829 351.3888  1.86231644 31567
BEIDOU-3 M6 (C22)       
1 43208U 18018B   22277.21999320  .00000051  00000+0  00000+0 0  9994
2 43208  55.5749 108.1541 0005477 311.4339  48.5869  1.86231689 31560
BEIDOU-3 M7 (C29)       
1 43245U 18029A   22277.56649035 -.00000089  00000+0  00000+0 0  9992
2 43245  55.1863 346.7044 0001073 200.5376 241.6864  1.86232818 30722
BEIDOU-3 M8 (C30)       
1 43246U 18029B   22277.50441262 -.00000089  00000+0  10000-3 0  9994
2 43246  55.1832 346.7362 0002885 351.5322  95.6939  1.86233029 30716
BEIDOU IGSO-7 (C16)     
1 43539U 18057A   22277.81316550 -.00000166  00000+0  00000+0 0  9996
2 43539  55.0911 174.7650 0051893 227.5493  18.4162  1.00277378 15604
BEIDOU-3 M9 (C23)       
1 43581U 18062A   22277.41292166 -.00000002  00000+0  00000+0 0  9990
2 43581  54.2500 228.3556 0005513 280.8597 316.3239  1.86232008 28459
BEIDOU-3 M10 (C24)      
1 43582U 18062B   22277.81457924 -.00000009  00000+0  00000+0 0  9997
2 43582  54.2499 228.3304 0005254 346.2537 252.1428  1.86232488 28461
BEIDOU-3 M11 (C25)      
1 43602U 18067A   22277.69448946 -.00000008  00000+0  00000+0 0  9994
2 43602  54.3327 226.9599 0007126   3.4884 195.5412  1.86231610 27954
BEIDOU-3 M12 (C26)      
1 43603U 18067B   22277.78842668 -.00000010  00000+0  00000+0 0  9997
2 43603  54.3296 226.9230 0004424 348.2418 184.1230  1.86231564 27975
BEIDOU-3 M13 (C32)      
1 43622U 18072A   22277.25802267  .00000051  00000+0  00000+0 0  9991
2 43622  55.5425 107.7000 0004387 290.1526 275.6064  1.86231795 27479
BEIDOU-3 M14 (C33)      
1 43623U 18072B   22277.27609850  .00000052  00000+0  00000+0 0  9998
2 43623  55.5445 107.6909 0002932 339.5484 328.5717  1.86231833 27470
BEIDOU-3 M15 (C34)      
1 43647U 18078A   22277.47260825 -.00000089  00000+0  10000-3 0  9993
2 43647  55.0815 346.8564 0005071   3.1287 332.4213  1.86233043 26983
BEIDOU-3 M16 (C35)      
1 43648U 18078B   22277.77614853 -.00000090  00000+0  00000+0 0  9998
2 43648  55.0770 346.8520 0002972  16.7631  69.8641  1.86232346 27012
BEIDOU-3 G1 (C59)       
1 43683U 18085A   22277.86734421 -.00000294  00000+0  00000+0 0  9995
2 43683   1.0166 149.5073 0004437  49.5605 266.6904  1.00266362 14505
BEIDOU-3 M17 (C36)      
1 43706U 18093A   22277.26050203  .00000001  00000+0  00000+0 0  9998
2 43706  54.3313 228.2543 0010298 279.8142  80.0484  1.86231738 26360
BEIDOU-3 M18 (C37)      
1 43707U 18093B   22277.78963133 -.00000009  00000+0  00000+0 0  9990
2 43707  54.3327 228.2265 0009203 300.6589 145.2883  1.86232314 26367
BEIDOU-3 IGSO-1 (C38)   
1 44204U 19023A   22277.84114047 -.00000204  00000+0  00000+0 0  9993
2 44204  56.7226  51.8002 0023797 188.9136 195.3753  1.00276858 12816
BEIDOU-2 G8             
1 44231U 19027A   22277.82109740 -.00000262  00000+0  00000+0 0  9993
2 44231   1.1203  79.2247 0006384 118.4656 255.9450  1.00270469 12525
BEIDOU-3 IGSO-2 (C39)   
1 44337U 19035A   22277.71641573 -.00000164  00000+0  00000+0 0  9993
2 44337  55.1263 170.7526 0025480 191.3158  28.9826  1.00271115 12141
BEIDOU-3 M23 (C45)      
1 44542U 19061A   22277.73373332 -.00000007  00000+0  00000+0 0  9993
2 44542  54.5579 228.4017 0008894 335.5569  24.3772  1.86231425 20622
BEIDOU-3 M24 (C46)      
1 44543U 19061B   22277.72139355 -.00000007  00000+0  00000+0 0  9998
2 44543  54.5567 228.3713 0006462 320.4934 302.6172  1.86231824 20618
BEIDOU-3 IGSO-3         
1 44709U 19073A   22277.85327267 -.00000148  00000+0  10000-3 0  9991
2 44709  57.0871 295.2479 0027491 182.7545 322.8513  1.00275845 10891
BEIDOU-3 M21            
1 44793U 19078A   22277.76402100 -.00000090  00000+0  10000-3 0  9995
2 44793  54.9302 346.8543 0004971  14.0057 110.6436  1.86232427 19481
BEIDOU-3 M22            
1 44794U 19078B   22277.60282462 -.00000090  00000+0  00000+0 0  9991
2 44794  54.9039 346.8501 0002849   3.5991 284.8252  1.86232859 19473
BEIDOU-3 M19            
1 44864U 19090A   22277.18905563  .00000051  00000+0  00000+0 0  9996
2 44864  55.4779 107.9068 0014976 269.8517 295.5412  1.86232010 19057
BEIDOU-3 M20            
1 44865U 19090B   22277.73846066  .00000054  00000+0  00000+0 0  9993
2 44865  55.4797 107.9204 0013047 285.8079  17.7831  1.86231950 19038
BEIDOU-3 G2             
1 45344U 20017A   22277.74007931 -.00000156  00000+0  00000+0 0  9992
2 45344   2.0143 357.6442 0004059 159.3453 202.8916  1.00270531  9704
BEIDOU-3 G3             
1 45807U 20040A   22277.84215521 -.00000370  00000+0  00000+0 0  9997
2 45807   1.2032 307.0147 0008482 335.0581 145.1960  1.00271126  8524
